ONEWEB-0116             
1 48046U 21025E   24314.08387211  .00000002  00000+0 -30507-4 0  9997
2 48046  87.8914  76.5868 0001729  98.4472 261.6853 13.13473232176840
ONEWEB-0150             
1 48047U 21025F   24313.60140034 -.00000151  00000+0 -44907-3 0  9999
2 48047  87.8907  76.6933 0001526 104.7986 255.3312 13.13470373176677
ONEWEB-0107             
1 48048U 21025G   24313.37447240 -.00000198  00000+0 -57743-3 0  9996
2 48048  87.8906  76.7365 0001195  96.0735 264.0531 13.13471659176627
ONEWEB-0101             
1 48049U 21025H   24313.87120804  .00000287  00000+0  74960-3 0  9993
2 48049  87.8913  76.6623 0001485  95.8390 264.2909 13.13471987176667
ONEWEB-0113             
1 48050U 21025J   24313.39192821  .00000008  00000+0 -11995-4 0  9992
2 48050  87.8911  76.7385 0001700  98.5589 261.5732 13.13472492176681
ONEWEB-0112             
1 48051U 21025K   24313.60775212 -.00000234  00000+0 -67456-3 0  9992
2 48051  87.8905  76.6871 0001611 102.1466 257.9843 13.13472548176720
ONEWEB-0156             
1 48052U 21025L   24314.07433639 -.00000125  00000+0 -37634-3 0  9993
2 48052  87.8912  76.5970 0001569 100.8116 259.3190 13.13471954176773
ONEWEB-0161             
1 48053U 21025M   24313.59030719  .00000033  00000+0  54357-4 0  9990
2 48053  87.8915  76.7045 0001450  98.5574 261.5720 13.13472263176635
